{
"type": "FeatureCollection",
"name": "negative_samples",
"crs": { "type": "name", "properties": { "name": "urn:ogc:def:crs:OGC:1.3:CRS84" } },
"features": [
{ "type": "Feature", "properties": { "is_landslide": 0 }, "geometry": { "type": "Point", "coordinates": [ 88.331137362852317, 27.295743491673459 ] } },
{ "type": "Feature", "properties": { "is_landslide": 0 }, "geometry": { "type": "Point", "coordinates": [ 88.811269499564588, 27.36997477241189 ] } },
{ "type": "Feature", "properties": { "is_landslide": 0 }, "geometry": { "type": "Point", "coordinates": [ 88.234402904979618, 27.229194960243206 ] } },
{ "type": "Feature", "properties": { "is_landslide": 0 }, "geometry": { "type": "Point", "coordinates": [ 88.803523968055956, 27.416963424696942 ] } },
{ "type": "Feature", "properties": { "is_landslide": 0 }, "geometry": { "type": "Point", "coordinates": [ 88.640998658875503, 27.312957990184074 ] } },
{ "type": "Feature", "properties": { "is_landslide": 0 }, "geometry": { "type": "Point", "coordinates": [ 88.248233430426026, 27.353303357238769 ] } },
{ "type": "Feature", "properties": { "is_landslide": 0 }, "geometry": { "type": "Point", "coordinates": [ 88.518463076574903, 27.365922413363876 ] } },
{ "type": "Feature", "properties": { "is_landslide": 0 }, "geometry": { "type": "Point", "coordinates": [ 88.101848901113243, 27.340881777831939 ] } },
{ "type": "Feature", "properties": { "is_landslide": 0 }, "geometry": { "type": "Point", "coordinates": [ 88.260748435298495, 27.344831381322223 ] } },
{ "type": "Feature", "properties": { "is_landslide": 0 }, "geometry": { "type": "Point", "coordinates": [ 88.278867671046541, 27.33164038515384 ] } },
{ "type": "Feature", "properties": { "is_landslide": 0 }, "geometry": { "type": "Point", "coordinates": [ 88.123283140162243, 27.448924892327526 ] } },
{ "type": "Feature", "properties": { "is_landslide": 0 }, "geometry": { "type": "Point", "coordinates": [ 88.688491592177357, 27.322727726868447 ] } },
{ "type": "Feature", "properties": { "is_landslide": 0 }, "geometry": { "type": "Point", "coordinates": [ 88.86329081408438, 27.417313690767187 ] } },
{ "type": "Feature", "properties": { "is_landslide": 0 }, "geometry": { "type": "Point", "coordinates": [ 88.867126001258598, 27.278158426894855 ] } },
{ "type": "Feature", "properties": { "is_landslide": 0 }, "geometry": { "type": "Point", "coordinates": [ 88.45883972295205, 27.167968065640771 ] } },
{ "type": "Feature", "properties": { "is_landslide": 0 }, "geometry": { "type": "Point", "coordinates": [ 88.181902905340749, 27.490717356491121 ] } },
{ "type": "Feature", "properties": { "is_landslide": 0 }, "geometry": { "type": "Point", "coordinates": [ 88.739119871567055, 27.468151184230226 ] } },
{ "type": "Feature", "properties": { "is_landslide": 0 }, "geometry": { "type": "Point", "coordinates": [ 88.417991839994528, 27.309725576900433 ] } },
{ "type": "Feature", "properties": { "is_landslide": 0 }, "geometry": { "type": "Point", "coordinates": [ 88.880961176646139, 27.157830000287735 ] } },
{ "type": "Feature", "properties": { "is_landslide": 0 }, "geometry": { "type": "Point", "coordinates": [ 88.69528449132676, 27.458991134461343 ] } },
{ "type": "Feature", "properties": { "is_landslide": 0 }, "geometry": { "type": "Point", "coordinates": [ 88.616522816583156, 27.205681499985761 ] } },
{ "type": "Feature", "properties": { "is_landslide": 0 }, "geometry": { "type": "Point", "coordinates": [ 88.101785341048, 27.321809796679769 ] } },
{ "type": "Feature", "properties": { "is_landslide": 0 }, "geometry": { "type": "Point", "coordinates": [ 88.856098592146054, 27.149195123222086 ] } },
{ "type": "Feature", "properties": { "is_landslide": 0 }, "geometry": { "type": "Point", "coordinates": [ 88.679890367048046, 27.240971434809165 ] } },
{ "type": "Feature", "properties": { "is_landslide": 0 }, "geometry": { "type": "Point", "coordinates": [ 88.090277502959268, 27.487752306252826 ] } },
{ "type": "Feature", "properties": { "is_landslide": 0 }, "geometry": { "type": "Point", "coordinates": [ 88.623982086859513, 27.349743285632631 ] } },
{ "type": "Feature", "properties": { "is_landslide": 0 }, "geometry": { "type": "Point", "coordinates": [ 88.881659370480122, 27.508538717348493 ] } },
{ "type": "Feature", "properties": { "is_landslide": 0 }, "geometry": { "type": "Point", "coordinates": [ 88.76416971472284, 27.200436818468305 ] } },
{ "type": "Feature", "properties": { "is_landslide": 0 }, "geometry": { "type": "Point", "coordinates": [ 88.167277385432556, 27.204548167391181 ] } },
{ "type": "Feature", "properties": { "is_landslide": 0 }, "geometry": { "type": "Point", "coordinates": [ 88.722998135300685, 27.242655810081061 ] } },
{ "type": "Feature", "properties": { "is_landslide": 0 }, "geometry": { "type": "Point", "coordinates": [ 88.805693611524731, 27.365032271764914 ] } },
{ "type": "Feature", "properties": { "is_landslide": 0 }, "geometry": { "type": "Point", "coordinates": [ 88.307621614056075, 27.418226730283919 ] } },
{ "type": "Feature", "properties": { "is_landslide": 0 }, "geometry": { "type": "Point", "coordinates": [ 88.432746567165708, 27.260123271422806 ] } },
{ "type": "Feature", "properties": { "is_landslide": 0 }, "geometry": { "type": "Point", "coordinates": [ 88.689508400490993, 27.266304290908558 ] } },
{ "type": "Feature", "properties": { "is_landslide": 0 }, "geometry": { "type": "Point", "coordinates": [ 88.621625288600285, 27.276771281773154 ] } },
{ "type": "Feature", "properties": { "is_landslide": 0 }, "geometry": { "type": "Point", "coordinates": [ 88.425905214182009, 27.31377703562141 ] } },
{ "type": "Feature", "properties": { "is_landslide": 0 }, "geometry": { "type": "Point", "coordinates": [ 88.773155186643095, 27.44393794665287 ] } },
{ "type": "Feature", "properties": { "is_landslide": 0 }, "geometry": { "type": "Point", "coordinates": [ 88.783894687312568, 27.302270879218252 ] } },
{ "type": "Feature", "properties": { "is_landslide": 0 }, "geometry": { "type": "Point", "coordinates": [ 88.778359954018811, 27.091033212140832 ] } },
{ "type": "Feature", "properties": { "is_landslide": 0 }, "geometry": { "type": "Point", "coordinates": [ 88.631667978584886, 27.258740407983513 ] } },
{ "type": "Feature", "properties": { "is_landslide": 0 }, "geometry": { "type": "Point", "coordinates": [ 88.432837866865242, 27.512959300701159 ] } },
{ "type": "Feature", "properties": { "is_landslide": 0 }, "geometry": { "type": "Point", "coordinates": [ 88.572479489106982, 27.517207439001272 ] } },
{ "type": "Feature", "properties": { "is_landslide": 0 }, "geometry": { "type": "Point", "coordinates": [ 88.078331209737669, 27.422000719004149 ] } },
{ "type": "Feature", "properties": { "is_landslide": 0 }, "geometry": { "type": "Point", "coordinates": [ 88.444759680430494, 27.23095776972205 ] } },
{ "type": "Feature", "properties": { "is_landslide": 0 }, "geometry": { "type": "Point", "coordinates": [ 88.214112025759789, 27.229584852326667 ] } },
{ "type": "Feature", "properties": { "is_landslide": 0 }, "geometry": { "type": "Point", "coordinates": [ 88.475870730820731, 27.482944047933945 ] } },
{ "type": "Feature", "properties": { "is_landslide": 0 }, "geometry": { "type": "Point", "coordinates": [ 88.744419213481663, 27.397753477043423 ] } },
{ "type": "Feature", "properties": { "is_landslide": 0 }, "geometry": { "type": "Point", "coordinates": [ 88.58070083890793, 27.246364828904866 ] } },
{ "type": "Feature", "properties": { "is_landslide": 0 }, "geometry": { "type": "Point", "coordinates": [ 88.221536815418773, 27.324693880411601 ] } },
{ "type": "Feature", "properties": { "is_landslide": 0 }, "geometry": { "type": "Point", "coordinates": [ 88.152690555870606, 27.091053725349962 ] } },
{ "type": "Feature", "properties": { "is_landslide": 0 }, "geometry": { "type": "Point", "coordinates": [ 88.306983980948729, 27.519884761629953 ] } },
{ "type": "Feature", "properties": { "is_landslide": 0 }, "geometry": { "type": "Point", "coordinates": [ 88.295101684601377, 27.256355999504819 ] } },
{ "type": "Feature", "properties": { "is_landslide": 0 }, "geometry": { "type": "Point", "coordinates": [ 88.467993907329443, 27.316340679928821 ] } },
{ "type": "Feature", "properties": { "is_landslide": 0 }, "geometry": { "type": "Point", "coordinates": [ 88.241839542970965, 27.330091237802041 ] } },
{ "type": "Feature", "properties": { "is_landslide": 0 }, "geometry": { "type": "Point", "coordinates": [ 88.401943838077045, 27.235001392853768 ] } },
{ "type": "Feature", "properties": { "is_landslide": 0 }, "geometry": { "type": "Point", "coordinates": [ 88.626538303614581, 27.219541489697402 ] } },
{ "type": "Feature", "properties": { "is_landslide": 0 }, "geometry": { "type": "Point", "coordinates": [ 88.837061746908347, 27.32163003655587 ] } },
{ "type": "Feature", "properties": { "is_landslide": 0 }, "geometry": { "type": "Point", "coordinates": [ 88.799453940384709, 27.223427321030524 ] } },
{ "type": "Feature", "properties": { "is_landslide": 0 }, "geometry": { "type": "Point", "coordinates": [ 88.130949640203653, 27.451408378399513 ] } },
{ "type": "Feature", "properties": { "is_landslide": 0 }, "geometry": { "type": "Point", "coordinates": [ 88.1113856349278, 27.121394245154843 ] } },
{ "type": "Feature", "properties": { "is_landslide": 0 }, "geometry": { "type": "Point", "coordinates": [ 88.760865980375655, 27.20279459041225 ] } },
{ "type": "Feature", "properties": { "is_landslide": 0 }, "geometry": { "type": "Point", "coordinates": [ 88.737354803910634, 27.12929425064765 ] } },
{ "type": "Feature", "properties": { "is_landslide": 0 }, "geometry": { "type": "Point", "coordinates": [ 88.526323081753617, 27.392607244770744 ] } },
{ "type": "Feature", "properties": { "is_landslide": 0 }, "geometry": { "type": "Point", "coordinates": [ 88.402844774778345, 27.210596575163283 ] } },
{ "type": "Feature", "properties": { "is_landslide": 0 }, "geometry": { "type": "Point", "coordinates": [ 88.827821370684788, 27.087415976774604 ] } },
{ "type": "Feature", "properties": { "is_landslide": 0 }, "geometry": { "type": "Point", "coordinates": [ 88.149673127421025, 27.420679231867975 ] } },
{ "type": "Feature", "properties": { "is_landslide": 0 }, "geometry": { "type": "Point", "coordinates": [ 88.834309804112337, 27.41748715335001 ] } },
{ "type": "Feature", "properties": { "is_landslide": 0 }, "geometry": { "type": "Point", "coordinates": [ 88.868309601572065, 27.135500262367671 ] } },
{ "type": "Feature", "properties": { "is_landslide": 0 }, "geometry": { "type": "Point", "coordinates": [ 88.38956578673492, 27.276859611216537 ] } },
{ "type": "Feature", "properties": { "is_landslide": 0 }, "geometry": { "type": "Point", "coordinates": [ 88.148032958456568, 27.327748374453744 ] } },
{ "type": "Feature", "properties": { "is_landslide": 0 }, "geometry": { "type": "Point", "coordinates": [ 88.826652109317308, 27.536328854407174 ] } },
{ "type": "Feature", "properties": { "is_landslide": 0 }, "geometry": { "type": "Point", "coordinates": [ 88.07643596090071, 27.095695269441183 ] } },
{ "type": "Feature", "properties": { "is_landslide": 0 }, "geometry": { "type": "Point", "coordinates": [ 88.194470688868975, 27.470724109600123 ] } },
{ "type": "Feature", "properties": { "is_landslide": 0 }, "geometry": { "type": "Point", "coordinates": [ 88.190508591692918, 27.461911775662227 ] } },
{ "type": "Feature", "properties": { "is_landslide": 0 }, "geometry": { "type": "Point", "coordinates": [ 88.416100354870736, 27.195682224259293 ] } },
{ "type": "Feature", "properties": { "is_landslide": 0 }, "geometry": { "type": "Point", "coordinates": [ 88.255932755730484, 27.176864137860022 ] } },
{ "type": "Feature", "properties": { "is_landslide": 0 }, "geometry": { "type": "Point", "coordinates": [ 88.579682397800738, 27.51976860190517 ] } },
{ "type": "Feature", "properties": { "is_landslide": 0 }, "geometry": { "type": "Point", "coordinates": [ 88.864319427909095, 27.277504547168409 ] } },
{ "type": "Feature", "properties": { "is_landslide": 0 }, "geometry": { "type": "Point", "coordinates": [ 88.34785847642415, 27.098854078714158 ] } },
{ "type": "Feature", "properties": { "is_landslide": 0 }, "geometry": { "type": "Point", "coordinates": [ 88.105323693158937, 27.326645981805839 ] } },
{ "type": "Feature", "properties": { "is_landslide": 0 }, "geometry": { "type": "Point", "coordinates": [ 88.227977629132099, 27.354366996831224 ] } },
{ "type": "Feature", "properties": { "is_landslide": 0 }, "geometry": { "type": "Point", "coordinates": [ 88.306495846663267, 27.480516542340329 ] } },
{ "type": "Feature", "properties": { "is_landslide": 0 }, "geometry": { "type": "Point", "coordinates": [ 88.258190345688163, 27.18768495259539 ] } },
{ "type": "Feature", "properties": { "is_landslide": 0 }, "geometry": { "type": "Point", "coordinates": [ 88.328533549512727, 27.388600078956603 ] } },
{ "type": "Feature", "properties": { "is_landslide": 0 }, "geometry": { "type": "Point", "coordinates": [ 88.280754134133048, 27.36286431400173 ] } },
{ "type": "Feature", "properties": { "is_landslide": 0 }, "geometry": { "type": "Point", "coordinates": [ 88.686643698860607, 27.420122797630533 ] } },
{ "type": "Feature", "properties": { "is_landslide": 0 }, "geometry": { "type": "Point", "coordinates": [ 88.876027410064438, 27.086774682170113 ] } },
{ "type": "Feature", "properties": { "is_landslide": 0 }, "geometry": { "type": "Point", "coordinates": [ 88.656062869309807, 27.300024568673656 ] } },
{ "type": "Feature", "properties": { "is_landslide": 0 }, "geometry": { "type": "Point", "coordinates": [ 88.114246041696035, 27.495311931311015 ] } },
{ "type": "Feature", "properties": { "is_landslide": 0 }, "geometry": { "type": "Point", "coordinates": [ 88.429243405819975, 27.478074869358437 ] } },
{ "type": "Feature", "properties": { "is_landslide": 0 }, "geometry": { "type": "Point", "coordinates": [ 88.108071117900593, 27.207669155969853 ] } },
{ "type": "Feature", "properties": { "is_landslide": 0 }, "geometry": { "type": "Point", "coordinates": [ 88.472893992541145, 27.197307518830076 ] } },
{ "type": "Feature", "properties": { "is_landslide": 0 }, "geometry": { "type": "Point", "coordinates": [ 88.718148703571359, 27.369914262391621 ] } },
{ "type": "Feature", "properties": { "is_landslide": 0 }, "geometry": { "type": "Point", "coordinates": [ 88.619856881542574, 27.109188992717886 ] } },
{ "type": "Feature", "properties": { "is_landslide": 0 }, "geometry": { "type": "Point", "coordinates": [ 88.878252516098428, 27.331305961502455 ] } },
{ "type": "Feature", "properties": { "is_landslide": 0 }, "geometry": { "type": "Point", "coordinates": [ 88.460896268789469, 27.231112435540254 ] } },
{ "type": "Feature", "properties": { "is_landslide": 0 }, "geometry": { "type": "Point", "coordinates": [ 88.516491025561265, 27.331585196786449 ] } },
{ "type": "Feature", "properties": { "is_landslide": 0 }, "geometry": { "type": "Point", "coordinates": [ 88.600160285527707, 27.46754487466486 ] } },
{ "type": "Feature", "properties": { "is_landslide": 0 }, "geometry": { "type": "Point", "coordinates": [ 88.212573090336846, 27.089890640521983 ] } },
{ "type": "Feature", "properties": { "is_landslide": 0 }, "geometry": { "type": "Point", "coordinates": [ 88.845572223657115, 27.136098728315471 ] } },
{ "type": "Feature", "properties": { "is_landslide": 0 }, "geometry": { "type": "Point", "coordinates": [ 88.635237247565499, 27.200099950821571 ] } },
{ "type": "Feature", "properties": { "is_landslide": 0 }, "geometry": { "type": "Point", "coordinates": [ 88.332384976391054, 27.229202611526926 ] } },
{ "type": "Feature", "properties": { "is_landslide": 0 }, "geometry": { "type": "Point", "coordinates": [ 88.81092377487461, 27.534507423252343 ] } },
{ "type": "Feature", "properties": { "is_landslide": 0 }, "geometry": { "type": "Point", "coordinates": [ 88.340615111544082, 27.225112820288679 ] } },
{ "type": "Feature", "properties": { "is_landslide": 0 }, "geometry": { "type": "Point", "coordinates": [ 88.291025879209855, 27.28357813718484 ] } },
{ "type": "Feature", "properties": { "is_landslide": 0 }, "geometry": { "type": "Point", "coordinates": [ 88.117884008944657, 27.467543306728231 ] } },
{ "type": "Feature", "properties": { "is_landslide": 0 }, "geometry": { "type": "Point", "coordinates": [ 88.522669751617059, 27.277888784803807 ] } },
{ "type": "Feature", "properties": { "is_landslide": 0 }, "geometry": { "type": "Point", "coordinates": [ 88.878242181331871, 27.192165038504701 ] } },
{ "type": "Feature", "properties": { "is_landslide": 0 }, "geometry": { "type": "Point", "coordinates": [ 88.085187193546915, 27.090782216645433 ] } },
{ "type": "Feature", "properties": { "is_landslide": 0 }, "geometry": { "type": "Point", "coordinates": [ 88.102966971925269, 27.272502161037817 ] } },
{ "type": "Feature", "properties": { "is_landslide": 0 }, "geometry": { "type": "Point", "coordinates": [ 88.0868849842592, 27.106336383791753 ] } },
{ "type": "Feature", "properties": { "is_landslide": 0 }, "geometry": { "type": "Point", "coordinates": [ 88.793301275203902, 27.093179731370533 ] } },
{ "type": "Feature", "properties": { "is_landslide": 0 }, "geometry": { "type": "Point", "coordinates": [ 88.810291585845476, 27.331842284955915 ] } },
{ "type": "Feature", "properties": { "is_landslide": 0 }, "geometry": { "type": "Point", "coordinates": [ 88.159968297011233, 27.528354709681167 ] } },
{ "type": "Feature", "properties": { "is_landslide": 0 }, "geometry": { "type": "Point", "coordinates": [ 88.793866107560831, 27.530042103398024 ] } },
{ "type": "Feature", "properties": { "is_landslide": 0 }, "geometry": { "type": "Point", "coordinates": [ 88.805769944893569, 27.188981343755565 ] } },
{ "type": "Feature", "properties": { "is_landslide": 0 }, "geometry": { "type": "Point", "coordinates": [ 88.148013256687975, 27.411578493723464 ] } },
{ "type": "Feature", "properties": { "is_landslide": 0 }, "geometry": { "type": "Point", "coordinates": [ 88.420573821417378, 27.237564173726668 ] } },
{ "type": "Feature", "properties": { "is_landslide": 0 }, "geometry": { "type": "Point", "coordinates": [ 88.594217353285941, 27.277514115681306 ] } },
{ "type": "Feature", "properties": { "is_landslide": 0 }, "geometry": { "type": "Point", "coordinates": [ 88.079951774554075, 27.143537844134581 ] } },
{ "type": "Feature", "properties": { "is_landslide": 0 }, "geometry": { "type": "Point", "coordinates": [ 88.697619552209844, 27.349468807175697 ] } },
{ "type": "Feature", "properties": { "is_landslide": 0 }, "geometry": { "type": "Point", "coordinates": [ 88.449522251894265, 27.321536481113931 ] } },
{ "type": "Feature", "properties": { "is_landslide": 0 }, "geometry": { "type": "Point", "coordinates": [ 88.180680693471416, 27.306323490857352 ] } },
{ "type": "Feature", "properties": { "is_landslide": 0 }, "geometry": { "type": "Point", "coordinates": [ 88.279837061240826, 27.108427841717418 ] } },
{ "type": "Feature", "properties": { "is_landslide": 0 }, "geometry": { "type": "Point", "coordinates": [ 88.097983160599028, 27.095402981983923 ] } },
{ "type": "Feature", "properties": { "is_landslide": 0 }, "geometry": { "type": "Point", "coordinates": [ 88.300403997675645, 27.11645474330987 ] } },
{ "type": "Feature", "properties": { "is_landslide": 0 }, "geometry": { "type": "Point", "coordinates": [ 88.423114996669753, 27.103876359585648 ] } },
{ "type": "Feature", "properties": { "is_landslide": 0 }, "geometry": { "type": "Point", "coordinates": [ 88.21068360420864, 27.221174635928538 ] } },
{ "type": "Feature", "properties": { "is_landslide": 0 }, "geometry": { "type": "Point", "coordinates": [ 88.859858342783525, 27.502607368785153 ] } },
{ "type": "Feature", "properties": { "is_landslide": 0 }, "geometry": { "type": "Point", "coordinates": [ 88.732167385799286, 27.381326038691839 ] } },
{ "type": "Feature", "properties": { "is_landslide": 0 }, "geometry": { "type": "Point", "coordinates": [ 88.160379689288348, 27.384047532607887 ] } },
{ "type": "Feature", "properties": { "is_landslide": 0 }, "geometry": { "type": "Point", "coordinates": [ 88.531053647411937, 27.251666051003731 ] } },
{ "type": "Feature", "properties": { "is_landslide": 0 }, "geometry": { "type": "Point", "coordinates": [ 88.111513753787335, 27.21122117032299 ] } },
{ "type": "Feature", "properties": { "is_landslide": 0 }, "geometry": { "type": "Point", "coordinates": [ 88.667328336164204, 27.368846994069273 ] } },
{ "type": "Feature", "properties": { "is_landslide": 0 }, "geometry": { "type": "Point", "coordinates": [ 88.123731496004353, 27.328105536533698 ] } },
{ "type": "Feature", "properties": { "is_landslide": 0 }, "geometry": { "type": "Point", "coordinates": [ 88.702151094608041, 27.441908476409743 ] } },
{ "type": "Feature", "properties": { "is_landslide": 0 }, "geometry": { "type": "Point", "coordinates": [ 88.470980483930703, 27.528419994444256 ] } },
{ "type": "Feature", "properties": { "is_landslide": 0 }, "geometry": { "type": "Point", "coordinates": [ 88.66851603680152, 27.274726296403227 ] } },
{ "type": "Feature", "properties": { "is_landslide": 0 }, "geometry": { "type": "Point", "coordinates": [ 88.885747200022237, 27.288683797749361 ] } },
{ "type": "Feature", "properties": { "is_landslide": 0 }, "geometry": { "type": "Point", "coordinates": [ 88.398322929891776, 27.533410571484037 ] } },
{ "type": "Feature", "properties": { "is_landslide": 0 }, "geometry": { "type": "Point", "coordinates": [ 88.258036678676703, 27.151523451168856 ] } },
{ "type": "Feature", "properties": { "is_landslide": 0 }, "geometry": { "type": "Point", "coordinates": [ 88.683367824246034, 27.146924494229232 ] } },
{ "type": "Feature", "properties": { "is_landslide": 0 }, "geometry": { "type": "Point", "coordinates": [ 88.754324358239288, 27.382991866347062 ] } },
{ "type": "Feature", "properties": { "is_landslide": 0 }, "geometry": { "type": "Point", "coordinates": [ 88.301845080745181, 27.478840328091618 ] } },
{ "type": "Feature", "properties": { "is_landslide": 0 }, "geometry": { "type": "Point", "coordinates": [ 88.482928665308265, 27.533134947454034 ] } },
{ "type": "Feature", "properties": { "is_landslide": 0 }, "geometry": { "type": "Point", "coordinates": [ 88.434669660067698, 27.190055546716767 ] } },
{ "type": "Feature", "properties": { "is_landslide": 0 }, "geometry": { "type": "Point", "coordinates": [ 88.53077848677853, 27.447904780058629 ] } },
{ "type": "Feature", "properties": { "is_landslide": 0 }, "geometry": { "type": "Point", "coordinates": [ 88.575128580924925, 27.202075534215531 ] } },
{ "type": "Feature", "properties": { "is_landslide": 0 }, "geometry": { "type": "Point", "coordinates": [ 88.197115712132074, 27.406808793753971 ] } },
{ "type": "Feature", "properties": { "is_landslide": 0 }, "geometry": { "type": "Point", "coordinates": [ 88.09463464895137, 27.199849425894513 ] } },
{ "type": "Feature", "properties": { "is_landslide": 0 }, "geometry": { "type": "Point", "coordinates": [ 88.106979729836993, 27.419586783269548 ] } },
{ "type": "Feature", "properties": { "is_landslide": 0 }, "geometry": { "type": "Point", "coordinates": [ 88.813712058770378, 27.492605756703188 ] } },
{ "type": "Feature", "properties": { "is_landslide": 0 }, "geometry": { "type": "Point", "coordinates": [ 88.668030554320836, 27.531474584334291 ] } },
{ "type": "Feature", "properties": { "is_landslide": 0 }, "geometry": { "type": "Point", "coordinates": [ 88.281213394196044, 27.347662917419132 ] } },
{ "type": "Feature", "properties": { "is_landslide": 0 }, "geometry": { "type": "Point", "coordinates": [ 88.459488443763732, 27.272448495989433 ] } },
{ "type": "Feature", "properties": { "is_landslide": 0 }, "geometry": { "type": "Point", "coordinates": [ 88.296172985513124, 27.20878425260333 ] } },
{ "type": "Feature", "properties": { "is_landslide": 0 }, "geometry": { "type": "Point", "coordinates": [ 88.535627235361076, 27.282184365884561 ] } },
{ "type": "Feature", "properties": { "is_landslide": 0 }, "geometry": { "type": "Point", "coordinates": [ 88.875641634086691, 27.130119691309474 ] } },
{ "type": "Feature", "properties": { "is_landslide": 0 }, "geometry": { "type": "Point", "coordinates": [ 88.832195530510262, 27.092645445999466 ] } },
{ "type": "Feature", "properties": { "is_landslide": 0 }, "geometry": { "type": "Point", "coordinates": [ 88.484153353573348, 27.371402499175403 ] } },
{ "type": "Feature", "properties": { "is_landslide": 0 }, "geometry": { "type": "Point", "coordinates": [ 88.204589896357945, 27.313945639969827 ] } },
{ "type": "Feature", "properties": { "is_landslide": 0 }, "geometry": { "type": "Point", "coordinates": [ 88.124262586055281, 27.273735452641361 ] } },
{ "type": "Feature", "properties": { "is_landslide": 0 }, "geometry": { "type": "Point", "coordinates": [ 88.815674259142966, 27.434195291783659 ] } },
{ "type": "Feature", "properties": { "is_landslide": 0 }, "geometry": { "type": "Point", "coordinates": [ 88.706529178962882, 27.236755726038563 ] } },
{ "type": "Feature", "properties": { "is_landslide": 0 }, "geometry": { "type": "Point", "coordinates": [ 88.572940119114762, 27.337691290141557 ] } },
{ "type": "Feature", "properties": { "is_landslide": 0 }, "geometry": { "type": "Point", "coordinates": [ 88.451395774372514, 27.135961389322805 ] } },
{ "type": "Feature", "properties": { "is_landslide": 0 }, "geometry": { "type": "Point", "coordinates": [ 88.320578276017542, 27.120054288746577 ] } },
{ "type": "Feature", "properties": { "is_landslide": 0 }, "geometry": { "type": "Point", "coordinates": [ 88.396385115057285, 27.450336965959966 ] } },
{ "type": "Feature", "properties": { "is_landslide": 0 }, "geometry": { "type": "Point", "coordinates": [ 88.672412042712281, 27.36536528726592 ] } },
{ "type": "Feature", "properties": { "is_landslide": 0 }, "geometry": { "type": "Point", "coordinates": [ 88.475890142964062, 27.314629826494258 ] } },
{ "type": "Feature", "properties": { "is_landslide": 0 }, "geometry": { "type": "Point", "coordinates": [ 88.445518061964933, 27.190161022279881 ] } },
{ "type": "Feature", "properties": { "is_landslide": 0 }, "geometry": { "type": "Point", "coordinates": [ 88.7345716876886, 27.144541465436571 ] } },
{ "type": "Feature", "properties": { "is_landslide": 0 }, "geometry": { "type": "Point", "coordinates": [ 88.774307542673839, 27.189470322563864 ] } },
{ "type": "Feature", "properties": { "is_landslide": 0 }, "geometry": { "type": "Point", "coordinates": [ 88.460824806426402, 27.110144273512894 ] } },
{ "type": "Feature", "properties": { "is_landslide": 0 }, "geometry": { "type": "Point", "coordinates": [ 88.78199464939037, 27.515477104287687 ] } },
{ "type": "Feature", "properties": { "is_landslide": 0 }, "geometry": { "type": "Point", "coordinates": [ 88.416436491335219, 27.291473992933028 ] } },
{ "type": "Feature", "properties": { "is_landslide": 0 }, "geometry": { "type": "Point", "coordinates": [ 88.74160432066914, 27.186361762620415 ] } },
{ "type": "Feature", "properties": { "is_landslide": 0 }, "geometry": { "type": "Point", "coordinates": [ 88.77833131198642, 27.305901634878893 ] } },
{ "type": "Feature", "properties": { "is_landslide": 0 }, "geometry": { "type": "Point", "coordinates": [ 88.294583592457414, 27.52103117748824 ] } },
{ "type": "Feature", "properties": { "is_landslide": 0 }, "geometry": { "type": "Point", "coordinates": [ 88.729923132196276, 27.326367461540595 ] } },
{ "type": "Feature", "properties": { "is_landslide": 0 }, "geometry": { "type": "Point", "coordinates": [ 88.207137122925687, 27.147345454005354 ] } },
{ "type": "Feature", "properties": { "is_landslide": 0 }, "geometry": { "type": "Point", "coordinates": [ 88.453917389804076, 27.208305935483999 ] } },
{ "type": "Feature", "properties": { "is_landslide": 0 }, "geometry": { "type": "Point", "coordinates": [ 88.345629452760065, 27.405641909437087 ] } },
{ "type": "Feature", "properties": { "is_landslide": 0 }, "geometry": { "type": "Point", "coordinates": [ 88.669669045615947, 27.449777200434237 ] } },
{ "type": "Feature", "properties": { "is_landslide": 0 }, "geometry": { "type": "Point", "coordinates": [ 88.615458514051511, 27.151333380419825 ] } },
{ "type": "Feature", "properties": { "is_landslide": 0 }, "geometry": { "type": "Point", "coordinates": [ 88.606008591426018, 27.396476599686171 ] } },
{ "type": "Feature", "properties": { "is_landslide": 0 }, "geometry": { "type": "Point", "coordinates": [ 88.61367135411362, 27.274989995605189 ] } },
{ "type": "Feature", "properties": { "is_landslide": 0 }, "geometry": { "type": "Point", "coordinates": [ 88.5681997525502, 27.385545037372005 ] } },
{ "type": "Feature", "properties": { "is_landslide": 0 }, "geometry": { "type": "Point", "coordinates": [ 88.325941049776588, 27.404504716006425 ] } },
{ "type": "Feature", "properties": { "is_landslide": 0 }, "geometry": { "type": "Point", "coordinates": [ 88.234641069217417, 27.413548611044263 ] } },
{ "type": "Feature", "properties": { "is_landslide": 0 }, "geometry": { "type": "Point", "coordinates": [ 88.126513444014861, 27.466413866423931 ] } },
{ "type": "Feature", "properties": { "is_landslide": 0 }, "geometry": { "type": "Point", "coordinates": [ 88.612872509782022, 27.2078468871631 ] } },
{ "type": "Feature", "properties": { "is_landslide": 0 }, "geometry": { "type": "Point", "coordinates": [ 88.189765480565057, 27.476849506470536 ] } },
{ "type": "Feature", "properties": { "is_landslide": 0 }, "geometry": { "type": "Point", "coordinates": [ 88.622338784049063, 27.536340864960252 ] } },
{ "type": "Feature", "properties": { "is_landslide": 0 }, "geometry": { "type": "Point", "coordinates": [ 88.534884446350688, 27.149004815068302 ] } },
{ "type": "Feature", "properties": { "is_landslide": 0 }, "geometry": { "type": "Point", "coordinates": [ 88.120607413602087, 27.201816329113509 ] } },
{ "type": "Feature", "properties": { "is_landslide": 0 }, "geometry": { "type": "Point", "coordinates": [ 88.127685030518052, 27.187663006901264 ] } },
{ "type": "Feature", "properties": { "is_landslide": 0 }, "geometry": { "type": "Point", "coordinates": [ 88.643450831456732, 27.225121166314224 ] } },
{ "type": "Feature", "properties": { "is_landslide": 0 }, "geometry": { "type": "Point", "coordinates": [ 88.321497220297331, 27.32243539647634 ] } },
{ "type": "Feature", "properties": { "is_landslide": 0 }, "geometry": { "type": "Point", "coordinates": [ 88.223031454878992, 27.422947892754173 ] } },
{ "type": "Feature", "properties": { "is_landslide": 0 }, "geometry": { "type": "Point", "coordinates": [ 88.675277443310293, 27.252639090397157 ] } },
{ "type": "Feature", "properties": { "is_landslide": 0 }, "geometry": { "type": "Point", "coordinates": [ 88.806785610778888, 27.510890114412415 ] } },
{ "type": "Feature", "properties": { "is_landslide": 0 }, "geometry": { "type": "Point", "coordinates": [ 88.453880832155946, 27.352909298605983 ] } },
{ "type": "Feature", "properties": { "is_landslide": 0 }, "geometry": { "type": "Point", "coordinates": [ 88.403323852741835, 27.525451011543954 ] } },
{ "type": "Feature", "properties": { "is_landslide": 0 }, "geometry": { "type": "Point", "coordinates": [ 88.49676498508353, 27.204347042837586 ] } },
{ "type": "Feature", "properties": { "is_landslide": 0 }, "geometry": { "type": "Point", "coordinates": [ 88.4065096622666, 27.29962089877478 ] } },
{ "type": "Feature", "properties": { "is_landslide": 0 }, "geometry": { "type": "Point", "coordinates": [ 88.814711622874114, 27.13330014212131 ] } },
{ "type": "Feature", "properties": { "is_landslide": 0 }, "geometry": { "type": "Point", "coordinates": [ 88.209300970438207, 27.411596607198629 ] } },
{ "type": "Feature", "properties": { "is_landslide": 0 }, "geometry": { "type": "Point", "coordinates": [ 88.470742403089503, 27.426944342337531 ] } },
{ "type": "Feature", "properties": { "is_landslide": 0 }, "geometry": { "type": "Point", "coordinates": [ 88.842773322479516, 27.256100591393519 ] } },
{ "type": "Feature", "properties": { "is_landslide": 0 }, "geometry": { "type": "Point", "coordinates": [ 88.414758506172063, 27.250001880060491 ] } },
{ "type": "Feature", "properties": { "is_landslide": 0 }, "geometry": { "type": "Point", "coordinates": [ 88.523547281733769, 27.137155383948429 ] } },
{ "type": "Feature", "properties": { "is_landslide": 0 }, "geometry": { "type": "Point", "coordinates": [ 88.185434244121922, 27.175990025516064 ] } },
{ "type": "Feature", "properties": { "is_landslide": 0 }, "geometry": { "type": "Point", "coordinates": [ 88.80780171333015, 27.263129868812751 ] } },
{ "type": "Feature", "properties": { "is_landslide": 0 }, "geometry": { "type": "Point", "coordinates": [ 88.174606393534049, 27.373110873899808 ] } },
{ "type": "Feature", "properties": { "is_landslide": 0 }, "geometry": { "type": "Point", "coordinates": [ 88.196065384712966, 27.266384524876266 ] } },
{ "type": "Feature", "properties": { "is_landslide": 0 }, "geometry": { "type": "Point", "coordinates": [ 88.264422957962296, 27.299831984551815 ] } },
{ "type": "Feature", "properties": { "is_landslide": 0 }, "geometry": { "type": "Point", "coordinates": [ 88.308297791911258, 27.5097529347468 ] } },
{ "type": "Feature", "properties": { "is_landslide": 0 }, "geometry": { "type": "Point", "coordinates": [ 88.094720176023657, 27.268672843905772 ] } },
{ "type": "Feature", "properties": { "is_landslide": 0 }, "geometry": { "type": "Point", "coordinates": [ 88.637941993042489, 27.352864342846576 ] } },
{ "type": "Feature", "properties": { "is_landslide": 0 }, "geometry": { "type": "Point", "coordinates": [ 88.493313608534635, 27.297279768287677 ] } },
{ "type": "Feature", "properties": { "is_landslide": 0 }, "geometry": { "type": "Point", "coordinates": [ 88.084140312534075, 27.532315193572096 ] } },
{ "type": "Feature", "properties": { "is_landslide": 0 }, "geometry": { "type": "Point", "coordinates": [ 88.360620844199971, 27.148096888062149 ] } },
{ "type": "Feature", "properties": { "is_landslide": 0 }, "geometry": { "type": "Point", "coordinates": [ 88.477244461243302, 27.20559007058371 ] } },
{ "type": "Feature", "properties": { "is_landslide": 0 }, "geometry": { "type": "Point", "coordinates": [ 88.526437304828619, 27.449566829993906 ] } },
{ "type": "Feature", "properties": { "is_landslide": 0 }, "geometry": { "type": "Point", "coordinates": [ 88.706285383363976, 27.527672298663827 ] } },
{ "type": "Feature", "properties": { "is_landslide": 0 }, "geometry": { "type": "Point", "coordinates": [ 88.21167915683462, 27.522605220780655 ] } },
{ "type": "Feature", "properties": { "is_landslide": 0 }, "geometry": { "type": "Point", "coordinates": [ 88.871669323518134, 27.136743823450651 ] } },
{ "type": "Feature", "properties": { "is_landslide": 0 }, "geometry": { "type": "Point", "coordinates": [ 88.237703123975692, 27.246059227208224 ] } },
{ "type": "Feature", "properties": { "is_landslide": 0 }, "geometry": { "type": "Point", "coordinates": [ 88.248665175460843, 27.475769804880336 ] } },
{ "type": "Feature", "properties": { "is_landslide": 0 }, "geometry": { "type": "Point", "coordinates": [ 88.81460535383836, 27.303678565813957 ] } },
{ "type": "Feature", "properties": { "is_landslide": 0 }, "geometry": { "type": "Point", "coordinates": [ 88.581374518679652, 27.476363725163434 ] } },
{ "type": "Feature", "properties": { "is_landslide": 0 }, "geometry": { "type": "Point", "coordinates": [ 88.62151666493078, 27.417244521019867 ] } },
{ "type": "Feature", "properties": { "is_landslide": 0 }, "geometry": { "type": "Point", "coordinates": [ 88.874369153500297, 27.267178531378292 ] } },
{ "type": "Feature", "properties": { "is_landslide": 0 }, "geometry": { "type": "Point", "coordinates": [ 88.43874218413228, 27.219110002728474 ] } },
{ "type": "Feature", "properties": { "is_landslide": 0 }, "geometry": { "type": "Point", "coordinates": [ 88.189297558168363, 27.363518971629301 ] } },
{ "type": "Feature", "properties": { "is_landslide": 0 }, "geometry": { "type": "Point", "coordinates": [ 88.10753177967662, 27.142108602243709 ] } },
{ "type": "Feature", "properties": { "is_landslide": 0 }, "geometry": { "type": "Point", "coordinates": [ 88.141316073964759, 27.22639350184647 ] } },
{ "type": "Feature", "properties": { "is_landslide": 0 }, "geometry": { "type": "Point", "coordinates": [ 88.260859613267641, 27.256256274492792 ] } },
{ "type": "Feature", "properties": { "is_landslide": 0 }, "geometry": { "type": "Point", "coordinates": [ 88.869915729529168, 27.384463928196492 ] } },
{ "type": "Feature", "properties": { "is_landslide": 0 }, "geometry": { "type": "Point", "coordinates": [ 88.407425536418089, 27.264274774085166 ] } },
{ "type": "Feature", "properties": { "is_landslide": 0 }, "geometry": { "type": "Point", "coordinates": [ 88.187889230278302, 27.540097431474969 ] } },
{ "type": "Feature", "properties": { "is_landslide": 0 }, "geometry": { "type": "Point", "coordinates": [ 88.636854159305912, 27.376246028014606 ] } },
{ "type": "Feature", "properties": { "is_landslide": 0 }, "geometry": { "type": "Point", "coordinates": [ 88.351945974116759, 27.244079244029646 ] } },
{ "type": "Feature", "properties": { "is_landslide": 0 }, "geometry": { "type": "Point", "coordinates": [ 88.531407870837768, 27.158010190579731 ] } },
{ "type": "Feature", "properties": { "is_landslide": 0 }, "geometry": { "type": "Point", "coordinates": [ 88.089301557300615, 27.162473398992955 ] } },
{ "type": "Feature", "properties": { "is_landslide": 0 }, "geometry": { "type": "Point", "coordinates": [ 88.837642266483911, 27.086773768896407 ] } },
{ "type": "Feature", "properties": { "is_landslide": 0 }, "geometry": { "type": "Point", "coordinates": [ 88.4133367430927, 27.384451549405924 ] } },
{ "type": "Feature", "properties": { "is_landslide": 0 }, "geometry": { "type": "Point", "coordinates": [ 88.186646945854591, 27.188937166384331 ] } },
{ "type": "Feature", "properties": { "is_landslide": 0 }, "geometry": { "type": "Point", "coordinates": [ 88.61110011185248, 27.533271670618202 ] } },
{ "type": "Feature", "properties": { "is_landslide": 0 }, "geometry": { "type": "Point", "coordinates": [ 88.480271349849303, 27.36642591802098 ] } },
{ "type": "Feature", "properties": { "is_landslide": 0 }, "geometry": { "type": "Point", "coordinates": [ 88.274071530717848, 27.338636886656108 ] } },
{ "type": "Feature", "properties": { "is_landslide": 0 }, "geometry": { "type": "Point", "coordinates": [ 88.352808207147959, 27.277692675654738 ] } },
{ "type": "Feature", "properties": { "is_landslide": 0 }, "geometry": { "type": "Point", "coordinates": [ 88.160973031171267, 27.445787261201374 ] } },
{ "type": "Feature", "properties": { "is_landslide": 0 }, "geometry": { "type": "Point", "coordinates": [ 88.483345612448616, 27.135670781113532 ] } }
]
}
